{"type": "FeatureCollection", "features": [ {"type": "Feature", "properties": {"norad_id": 44476, "name": "INTELSAT 39 (IS-39)", "group": "intelsat", "lat": -0.0006414055223247371, "lon": 12.533468706311766, "alt_km": 35788.191772389655, "timestamp": "2025-12-19T14:48:35.912471+00:00", "meta": {"OBJECT_NAME": "INTELSAT 39 (IS-39)", "OBJECT_ID": "2019-049B", "EPOCH": "2025-12-19T04:59:51.777888", "MEAN_MOTION": 1.00271261, "ECCENTRICITY": 9.845e-05, "INCLINATION": 0.0033, "RA_OF_ASC_NODE": 52.437, "ARG_OF_PERICENTER": 79.0297, "MEAN_ANOMALY": 93.5011, "EPHEMERIS_TYPE": 0, "CLASSIFICATION_TYPE": "U", "NORAD_CAT_ID": 44476, "ELEMENT_SET_NO": 999, "REV_AT_EPOCH": 2332, "BSTAR": 0, "MEAN_MOTION_DOT": 5.8e-07, "MEAN_MOTION_DDOT": 0}, "tle": {"line1": "1 44476U 19049B   25353.20823817  .00000058  00000+0  00000+0 0  9998", "line2": "2 44476   0.0033  52.4370 0000984  79.0297  93.5011  1.00271261 23328"}}, "geometry": {"type": "Point", "coordinates": [12.533468706311766, -0.0006414055223247371]}}, {"type": "Feature", "properties": {"norad_id": 46114, "name": "GALAXY 30 (G-30)", "group": "intelsat", "lat": -0.01570073163044975, "lon": -174.4084057196276, "alt_km": 35785.08103224272, "timestamp": "2025-12-19T14:48:35.912482+00:00", "meta": {"OBJECT_NAME": "GALAXY 30 (G-30)", "OBJECT_ID": "2020-056C", "EPOCH": "2025-12-19T05:49:17.042304", "MEAN_MOTION": 1.00272958, "ECCENTRICITY": 0.00020248, "INCLINATION": 0.0074, "RA_OF_ASC_NODE": 313.5866, "ARG_OF_PERICENTER": 317.7165, "MEAN_ANOMALY": 139.123, "EPHEMERIS_TYPE": 0, "CLASSIFICATION_TYPE": "U", "NORAD_CAT_ID": 46114, "ELEMENT_SET_NO": 999, "REV_AT_EPOCH": 1948, "BSTAR": 0, "MEAN_MOTION_DOT": 6.1e-07, "MEAN_MOTION_DDOT": 0}, "tle": {"line1": "1 46114U 20056C   25353.24255836  .00000061  00000+0  00000+0 0  9997", "line2": "2 46114   0.0074 313.5866 0002024 317.7165 139.1230  1.00272958 19484"}}, "geometry": {"type": "Point", "coordinates": [-174.4084057196276, -0.01570073163044975]}}, {"type": "Feature", "properties": {"norad_id": 54026, "name": "GALAXY 33 (G-33)", "group": "intelsat", "lat": 0.00963568764997581, "lon": 177.58746242333538, "alt_km": 35786.299737042056, "timestamp": "2025-12-19T14:48:35.912494+00:00", "meta": {"OBJECT_NAME": "GALAXY 33 (G-33)", "OBJECT_ID": "2022-128A", "EPOCH": "2025-12-19T05:47:02.258304", "MEAN_MOTION": 1.00270895, "ECCENTRICITY": 0.00015487, "INCLINATION": 0.0125, "RA_OF_ASC_NODE": 31.8899, "ARG_OF_PERICENTER": 235.7336, "MEAN_ANOMALY": 134.2326, "EPHEMERIS_TYPE": 0, "CLASSIFICATION_TYPE": "U", "NORAD_CAT_ID": 54026, "ELEMENT_SET_NO": 999, "REV_AT_EPOCH": 1193, "BSTAR": 0, "MEAN_MOTION_DOT": 1.04e-06, "MEAN_MOTION_DDOT": 0}, "tle": {"line1": "1 54026U 22128A   25353.24099836  .00000104  00000+0  00000+0 0  9994", "line2": "2 54026   0.0125  31.8899 0001548 235.7336 134.2326  1.00270895 11939"}}, "geometry": {"type": "Point", "coordinates": [177.58746242333538, 0.00963568764997581]}}, {"type": "Feature", "properties": {"norad_id": 54027, "name": "GALAXY 34 (G-34)", "group": "intelsat", "lat": -0.00385803658958426, "lon": -178.3569942037652, "alt_km": 35785.96679684608, "timestamp": "2025-12-19T14:48:35.912505+00:00", "meta": {"OBJECT_NAME": "GALAXY 34 (G-34)", "OBJECT_ID": "2022-128B", "EPOCH": "2025-12-19T05:44:32.699904", "MEAN_MOTION": 1.0026751, "ECCENTRICITY": 0.00018344, "INCLINATION": 0.0224, "RA_OF_ASC_NODE": 0.3163, "ARG_OF_PERICENTER": 261.7674, "MEAN_ANOMALY": 143.2107, "EPHEMERIS_TYPE": 0, "CLASSIFICATION_TYPE": "U", "NORAD_CAT_ID": 54027, "ELEMENT_SET_NO": 999, "REV_AT_EPOCH": 1210, "BSTAR": 0, "MEAN_MOTION_DOT": 0, "MEAN_MOTION_DDOT": 0}, "tle": {"line1": "1 54027U 22128B   25353.23926736  .00000000  00000+0  00000+0 0  9997", "line2": "2 54027   0.0224   0.3163 0001834 261.7674 143.2107  1.00267510 12104"}}, "geometry": {"type": "Point", "coordinates": [-178.3569942037652, -0.00385803658958426]}}, {"type": "Feature", "properties": {"norad_id": 54243, "name": "GALAXY 31 (G-31)", "group": "intelsat", "lat": 0.00580040766912539, "lon": -170.41065560308988, "alt_km": 35786.08420140857, "timestamp": "2025-12-19T14:48:35.912517+00:00", "meta": {"OBJECT_NAME": "GALAXY 31 (G-31)", "OBJECT_ID": "2022-153A", "EPOCH": "2025-12-19T05:50:24.435168", "MEAN_MOTION": 1.00270918, "ECCENTRICITY": 0.00013692, "INCLINATION": 0.0136, "RA_OF_ASC_NODE": 62.0368, "ARG_OF_PERICENTER": 215.4835, "MEAN_ANOMALY": 137.1803, "EPHEMERIS_TYPE": 0, "CLASSIFICATION_TYPE": "U", "NORAD_CAT_ID": 54243, "ELEMENT_SET_NO": 999, "REV_AT_EPOCH": 532, "BSTAR": 0, "MEAN_MOTION_DOT": 3.8e-07, "MEAN_MOTION_DDOT": 0}, "tle": {"line1": "1 54243U 22153A   25353.24333837  .00000038  00000+0  00000+0 0  9991", "line2": "2 54243   0.0136  62.0368 0001369 215.4835 137.1803  1.00270918  5323"}}, "geometry": {"type": "Point", "coordinates": [-170.41065560308988, 0.00580040766912539]}}, {"type": "Feature", "properties": {"norad_id": 54244, "name": "GALAXY 32 (G-32)", "group": "intelsat", "lat": -0.029091589191461376, "lon": -140.43116514292856, "alt_km": 35787.93081455187, "timestamp": "2025-12-19T14:48:35.912529+00:00", "meta": {"OBJECT_NAME": "GALAXY 32 (G-32)", "OBJECT_ID": "2022-153B", "EPOCH": "2025-12-17T04:19:59.261664", "MEAN_MOTION": 1.00271531, "ECCENTRICITY": 0.000259, "INCLINATION": 0.0104, "RA_OF_ASC_NODE": 339.7375, "ARG_OF_PERICENTER": 338.8221, "MEAN_ANOMALY": 101.4983, "EPHEMERIS_TYPE": 0, "CLASSIFICATION_TYPE": "U", "NORAD_CAT_ID": 54244, "ELEMENT_SET_NO": 999, "REV_AT_EPOCH": 1131, "BSTAR": 0, "MEAN_MOTION_DOT": -1.5e-06, "MEAN_MOTION_DDOT": 0}, "tle": {"line1": "1 54244U 22153B   25351.18054701 -.00000150  00000+0  00000+0 0  9999", "line2": "2 54244   0.0104 339.7375 0002590 338.8221 101.4983  1.00271531 11318"}}, "geometry": {"type": "Point", "coordinates": [-140.43116514292856, -0.029091589191461376]}}, {"type": "Feature", "properties": {"norad_id": 54741, "name": "GALAXY 35 (G-35)", "group": "intelsat", "lat": -0.005787904279169831, "lon": -142.5130576608503, "alt_km": 35780.83670965262, "timestamp": "2025-12-19T14:48:35.912541+00:00", "meta": {"OBJECT_NAME": "GALAXY 35 (G-35)", "OBJECT_ID": "2022-170A", "EPOCH": "2025-12-19T06:04:53.142240", "MEAN_MOTION": 1.00272367, "ECCENTRICITY": 0.00021478, "INCLINATION": 0.0212, "RA_OF_ASC_NODE": 56.458, "ARG_OF_PERICENTER": 217.0175, "MEAN_ANOMALY": 172.7551, "EPHEMERIS_TYPE": 0, "CLASSIFICATION_TYPE": "U", "NORAD_CAT_ID": 54741, "ELEMENT_SET_NO": 999, "REV_AT_EPOCH": 1109, "BSTAR": 0, "MEAN_MOTION_DOT": -1.38e-06, "MEAN_MOTION_DDOT": 0}, "tle": {"line1": "1 54741U 22170A   25353.25339285 -.00000138  00000+0  00000+0 0  9999", "line2": "2 54741   0.0212  56.4580 0002147 217.0175 172.7551  1.00272367 11090"}}, "geometry": {"type": "Point", "coordinates": [-142.5130576608503, -0.005787904279169831]}}, {"type": "Feature", "properties": {"norad_id": 54742, "name": "GALAXY 36 (G-36)", "group": "intelsat", "lat": -0.03127032931326523, "lon": -138.41045608601755, "alt_km": 35787.64734629323, "timestamp": "2025-12-19T14:48:35.912552+00:00", "meta": {"OBJECT_NAME": "GALAXY 36 (G-36)", "OBJECT_ID": "2022-170B", "EPOCH": "2025-12-19T02:34:05.740896", "MEAN_MOTION": 1.00270001, "ECCENTRICITY": 3.641e-05, "INCLINATION": 0.0153, "RA_OF_ASC_NODE": 356.8705, "ARG_OF_PERICENTER": 357.1728, "MEAN_ANOMALY": 43.4349, "EPHEMERIS_TYPE": 0, "CLASSIFICATION_TYPE": "U", "NORAD_CAT_ID": 54742, "ELEMENT_SET_NO": 999, "REV_AT_EPOCH": 1096, "BSTAR": 0, "MEAN_MOTION_DOT": 0, "MEAN_MOTION_DDOT": 0}, "tle": {"line1": "1 54742U 22170B   25353.10701089  .00000000  00000+0  00000+0 0  9996", "line2": "2 54742   0.0153 356.8705 0000364 357.1728  43.4349  1.00270001 10967"}}, "geometry": {"type": "Point", "coordinates": [-138.41045608601755, -0.03127032931326523]}}, {"type": "Feature", "properties": {"norad_id": 57493, "name": "GALAXY 37 (G-37)", "group": "intelsat", "lat": -0.01135611759269269, "lon": -176.42174146802643, "alt_km": 35786.040051346834, "timestamp": "2025-12-19T14:48:35.912564+00:00", "meta": {"OBJECT_NAME": "GALAXY 37 (G-37)", "OBJECT_ID": "2023-112A", "EPOCH": "2025-12-19T05:45:45.873792", "MEAN_MOTION": 1.00270598, "ECCENTRICITY": 0.00019226, "INCLINATION": 0.0156, "RA_OF_ASC_NODE": 346.1289, "ARG_OF_PERICENTER": 285.0455, "MEAN_ANOMALY": 136.3582, "EPHEMERIS_TYPE": 0, "CLASSIFICATION_TYPE": "U", "NORAD_CAT_ID": 57493, "ELEMENT_SET_NO": 999, "REV_AT_EPOCH": 873, "BSTAR": 0, "MEAN_MOTION_DOT": 7.3e-07, "MEAN_MOTION_DDOT": 0}, "tle": {"line1": "1 57493U 23112A   25353.24011428  .00000073  00000+0  00000+0 0  9995", "line2": "2 57493   0.0156 346.1289 0001922 285.0455 136.3582  1.00270598  8736"}}, "geometry": {"type": "Point", "coordinates": [-176.42174146802643, -0.01135611759269269]}}]}